H1 CPF 01  gfz 2021 09 05 00  7481 tandemx   
H2 1003001  6202 36605    2021 09 05 00 59 42 2021 09 10 00 00 42   120 1 1  0 0 0
H9
10 0 59462  36702.000000  0   -2292162.723   5425562.284   3564003.856
10 0 59462  36822.000000  0   -1919375.466   5018199.784   4302052.301
10 0 59462  36942.000000  0   -1521000.472   4516381.374   4964374.194
10 0 59462  37062.000000  0   -1105588.371   3928531.421   5539341.084
10 0 59462  37182.000000  0    -681820.985   3264724.187   6016872.267
10 0 59462  37302.000000  0    -258331.300   2536503.114   6388606.779
10 0 59462  37422.000000  0     156470.938   1756674.338   6648043.357
10 0 59462  37542.000000  0     554564.952    939077.968   6790648.945
10 0 59462  37662.000000  0     928472.962     98340.330   6813932.206
10 0 59462  37782.000000  0    1271399.488   -750386.571   6717484.445
10 0 59462  37902.000000  0    1577354.409  -1591697.812   6502987.321
10 0 59462  38022.000000  0    1841257.922  -2410214.533   6174185.631
10 0 59462  38142.000000  0    2059025.595  -3190866.026   5736826.630
10 0 59462  38262.000000  0    2227632.339  -3919169.872   5198564.743
10 0 59462  38382.000000  0    2345153.633  -4581504.170   4568832.766
10 0 59462  38502.000000  0    2410784.545  -5165368.010   3858682.394
10 0 59462  38622.000000  0    2424835.965  -5659625.833   3080593.322
10 0 59462  38742.000000  0    2388705.368  -6054728.810   2248254.300
10 0 59462  38862.000000  0    2304824.744  -6342906.942   1376319.348
10 0 59462  38982.000000  0    2176587.130  -6518327.222    480145.582
10 0 59462  39102.000000  0    2008252.465  -6577216.997   -424483.469
10 0 59462  39222.000000  0    1804835.560  -6517946.418  -1321646.059
10 0 59462  39342.000000  0    1571976.385  -6341064.748  -2195572.520
10 0 59462  39462.000000  0    1315798.933  -6049294.132  -3030929.566
10 0 59462  39582.000000  0    1042762.513  -5647477.032  -3813094.688
10 0 59462  39702.000000  0     759510.217  -5142484.103  -4528412.225
10 0 59462  39822.000000  0     472716.189  -4543084.270  -5164428.907
10 0 59462  39942.000000  0     188936.474  -3859780.955  -5710103.944
10 0 59462  40062.000000  0     -85533.439  -3104618.123  -6155991.577
10 0 59462  40182.000000  0    -344791.392  -2290961.170  -6494393.269
10 0 59462  40302.000000  0    -583449.349  -1433257.358  -6719479.024
10 0 59462  40422.000000  0    -796740.150   -546780.493  -6827377.791
10 0 59462  40542.000000  0    -980608.489    352637.550  -6816236.890
10 0 59462  40662.000000  0   -1131785.389   1248882.895  -6686249.014
10 0 59462  40782.000000  0   -1247844.966   2125840.800  -6439649.156
10 0 59462  40902.000000  0   -1327242.557   2967677.859  -6080680.621
10 0 59462  41022.000000  0   -1369334.370   3759123.780  -5615531.311
10 0 59462  41142.000000  0   -1374377.771   4485746.996  -5052237.177
10 0 59462  41262.000000  0   -1343512.374   5134220.501  -4400555.392
10 0 59462  41382.000000  0   -1278722.181   5692572.891  -3671805.485
10 0 59462  41502.000000  0   -1182778.580   6150417.905  -2878680.813
10 0 59462  41622.000000  0   -1059165.506   6499158.345  -2035033.982
10 0 59462  41742.000000  0    -911988.085   6732160.133  -1155637.097
10 0 59462  41862.000000  0    -745866.923   6844889.421   -255922.024
10 0 59462  41982.000000  0    -565819.759   6835011.494    648294.614
10 0 59462  42102.000000  0    -377133.791   6702446.243   1541098.129
10 0 59462  42222.000000  0    -185232.231   6449375.674   2406766.540
10 0 59462  42342.000000  0       4461.128   6080204.720   3230055.303
10 0 59462  42462.000000  0     186656.261   5601479.533   3996471.377
10 0 59462  42582.000000  0     356326.967   5021766.649   4692533.962
10 0 59462  42702.000000  0     508833.619   4351486.549   5306017.186
10 0 59462  42822.000000  0     640035.208   3602714.531   5826159.079
10 0 59462  42942.000000  0     746388.919   2788956.506   6243847.479
10 0 59462  43062.000000  0     825033.556   1924897.583   6551774.438
10 0 59462  43182.000000  0     873856.555   1026132.313   6744558.177
10 0 59462  43302.000000  0     891543.292    108880.504   6818831.073
10 0 59462  43422.000000  0     877607.810   -810304.456   6773294.741
10 0 59462  43542.000000  0     832404.196  -1714834.065   6608742.676
10 0 59462  43662.000000  0     757118.492  -2588383.912   6328047.611
10 0 59462  43782.000000  0     653741.270  -3415189.796   5936114.885
10 0 59462  43902.000000  0     525020.892  -4180334.113   5439799.235
10 0 59462  44022.000000  0     374400.022  -4870016.948   4847790.646
10 0 59462  44142.000000  0     205935.668  -5471810.984   4170469.801
10 0 59462  44262.000000  0      24202.958  -5974895.872   3419731.009
10 0 59462  44382.000000  0    -165815.153  -6370263.368   2608774.945
10 0 59462  44502.000000  0    -358849.088  -6650888.520   1751874.819
10 0 59462  44622.000000  0    -549472.189  -6811862.791    864122.384
10 0 59462  44742.000000  0    -732235.604  -6850488.382    -38845.032
10 0 59462  44862.000000  0    -901804.944  -6766325.343   -941130.158
10 0 59462  44982.000000  0   -1053094.177  -6561192.160  -1826864.837
10 0 59462  45102.000000  0   -1181394.015  -6239121.746  -2680496.345
10 0 59462  45222.000000  0   -1282492.099  -5806274.378  -3487066.347
10 0 59462  45342.000000  0   -1352781.679  -5270808.722  -4232476.398
10 0 59462  45462.000000  0   -1389355.792  -4642714.931  -4903733.256
10 0 59462  45582.000000  0   -1390085.235  -3933616.416  -5489169.662
10 0 59462  45702.000000  0   -1353678.882  -3156545.323  -5978638.843
10 0 59462  45822.000000  0   -1279725.182  -2325696.222  -6363680.423
10 0 59462  45942.000000  0   -1168714.425  -1456162.924  -6637655.101
10 0 59462  46062.000000  0   -1022041.977   -563664.893  -6795847.745
10 0 59462  46182.000000  0    -841992.583    335733.172  -6835539.733
10 0 59462  46302.000000  0    -631704.812   1225903.908  -6756049.576
10 0 59462  46422.000000  0    -395117.501   2090938.686  -6558743.134
10 0 59462  46542.000000  0    -136899.157   2915424.485  -6247013.266
10 0 59462  46662.000000  0     137640.472   3684714.424  -5826229.459
10 0 59462  46782.000000  0     422655.262   4385186.765  -5303654.223
10 0 59462  46902.000000  0     711881.069   5004487.375  -4688329.018
10 0 59462  47022.000000  0     998766.735   5531754.118  -3990929.503
10 0 59462  47142.000000  0    1276615.490   5957816.614  -3223589.667
10 0 59462  47262.000000  0    1538733.445   6275366.889  -2399698.107
10 0 59462  47382.000000  0    1778582.273   6479097.496  -1533668.285
10 0 59462  47502.000000  0    1989932.617   6565802.308   -640685.797
10 0 59462  47622.000000  0    2167013.988   6534435.765    263562.441
10 0 59462  47742.000000  0    2304656.811   6386128.895   1163170.343
10 0 59462  47862.000000  0    2398423.540   6124161.984   2042300.106
10 0 59462  47982.000000  0    2444725.170   5753894.235   2885469.150
10 0 59462  48102.000000  0    2440920.655   5282652.521   3677830.391
10 0 59462  48222.000000  0    2385396.155   4719581.516   4405440.495
10 0 59462  48342.000000  0    2277621.550   4075457.877   5055510.876
10 0 59462  48462.000000  0    2118182.296   3362472.140   5616631.451
10 0 59462  48582.000000  0    1908789.267   2593991.017   6078966.270
10 0 59462  48702.000000  0    1652265.157   1784301.201   6434422.100
10 0 59462  48822.000000  0    1352506.727    948338.249   6676784.750
10 0 59462  48942.000000  0    1014424.706    101408.375   6801820.418
10 0 59462  49062.000000  0     643863.016   -741090.504   6807345.100
10 0 59462  49182.000000  0     247497.531  -1563948.729   6693262.049
10 0 59462  49302.000000  0    -167284.428  -2352419.559   6461563.198
10 0 59462  49422.000000  0    -592521.673  -3092484.139   6116296.136
10 0 59462  49542.000000  0   -1019830.083  -3771101.687   5663495.472
10 0 59462  49662.000000  0   -1440564.808  -4376440.480   5111083.305
10 0 59462  49782.000000  0   -1845994.008  -4898089.626   4468739.439
10 0 59462  49902.000000  0   -2227480.179  -5327247.377   3747737.993
10 0 59462  50022.000000  0   -2576664.158  -5656879.248   2960751.298
10 0 59462  50142.000000  0   -2885646.860  -5881840.379   2121626.153
10 0 59462  50262.000000  0   -3147164.977  -5998961.640   1245137.524
10 0 59462  50382.000000  0   -3354756.605  -6007097.080    346722.914
10 0 59462  50502.000000  0   -3502912.371  -5907130.734   -557797.042
10 0 59462  50622.000000  0   -3587208.248  -5701942.534  -1452506.164
10 0 59462  50742.000000  0   -3604416.430  -5396333.277  -2321681.883
10 0 59462  50862.000000  0   -3552591.569  -4996911.015  -3150079.001
10 0 59462  50982.000000  0   -3431129.829  -4511942.185  -3923201.657
10 0 59462  51102.000000  0   -3240799.777  -3951172.711  -4627557.099
10 0 59462  51222.000000  0   -2983745.736  -3325624.594  -5250887.478
10 0 59462  51342.000000  0   -2663464.038  -2647372.412  -5782376.123
10 0 59462  51462.000000  0   -2284753.201  -1929305.626  -6212825.631
10 0 59462  51582.000000  0   -1853638.606  -1184881.373  -6534806.648
10 0 59462  51702.000000  0   -1377273.727   -427872.405  -6742774.210
10 0 59462  51822.000000  0    -863821.368    327884.191  -6833151.845
10 0 59462  51942.000000  0    -322315.954   1068733.508  -6804386.121
10 0 59462  52062.000000  0     237491.937   1781443.098  -6656970.159
10 0 59462  52182.000000  0     805305.407   2453432.921  -6393437.310
10 0 59462  52302.000000  0    1370466.970   3072994.052  -6018323.910
10 0 59462  52422.000000  0    1922154.235   3629491.384  -5538098.637
10 0 59462  52542.000000  0    2449583.589   4113546.849  -4961061.412
10 0 59462  52662.000000  0    2942219.051   4517201.542  -4297211.795
10 0 59462  52782.000000  0    3389982.385   4834053.843  -3558086.209
10 0 59462  52902.000000  0    3783460.420   5059369.145  -2756566.077
10 0 59462  53022.000000  0    4114105.662   5190158.447  -1906658.142
10 0 59462  53142.000000  0    4374423.314   5225222.922  -1023251.299
99
